[{"OBJECT_NAME":"USA 119","OBJECT_ID":"1996-029A","EPOCH":"2026-03-09T10:00:09.129312","MEAN_MOTION":13.45886981,"ECCENTRICITY":0.0846389,"INCLINATION":63.3196,"RA_OF_ASC_NODE":93.119,"ARG_OF_PERICENTER":47.6314,"MEAN_ANOMALY":319.3281,"EPHEMERIS_TYPE":0,"CLASSIFICATION_TYPE":"U","NORAD_CAT_ID":23893,"ELEMENT_SET_NO":999,"REV_AT_EPOCH":9184,"BSTAR":0.00029025737,"MEAN_MOTION_DOT":1.64e-5,"MEAN_MOTION_DDOT":0},{"OBJECT_NAME":"STARLINK-32035","OBJECT_ID":"2024-117S","EPOCH":"2026-03-09T22:15:02.740320","MEAN_MOTION":15.30184213,"ECCENTRICITY":0.00012913,"INCLINATION":53.1612,"RA_OF_ASC_NODE":35.961,"ARG_OF_PERICENTER":81.4176,"MEAN_ANOMALY":278.6971,"EPHEMERIS_TYPE":0,"CLASSIFICATION_TYPE":"U","NORAD_CAT_ID":60107,"ELEMENT_SET_NO":999,"REV_AT_EPOCH":9692,"BSTAR":3.2036753e-5,"MEAN_MOTION_DOT":5.89e-6,"MEAN_MOTION_DDOT":0}]
